#dP2022  6 24  0  0  0.00000000      97 __u+U IGS14 FIT  IAC
## 2215 432000.00000000   900.00000000 59754 0.0000000000000
+  116   C06C07C08C09C10C11C12C13C14C16C19C20C21C22C23C24C25
+        C26C27C28C29C30C32C33C34C35C36C37C38C39C40C41C42C43
+        C44C45C46E01E02E03E04E05E07E08E09E10E11E12E13E14E15
+        E18E19E21E24E25E26E27E30E31E33E34E36G01G02G03G04G05
+        G06G07G08G09G10G11G12G13G14G15G16G17G18G19G20G21G22
+        G23G24G25G26G27G28G29G30G31G32J02J03R01R02R03R04R05
+        R07R08R09R11R12R13R14R15R17R18R19R20R21R24  0  0  0
++         7  8  7  7  8  7  6  7  7  7  5  5  6  5  6  6  6
++         5  5  6  5  5  6  6  6  5  6  6  6  7  6  6  6  6
++         6  6  6  4  4  4  4  4  4  4  4  5  4  4  4  4  4
++         5  5  4  4  4  4  4  4  5  5  4  4  3  4  3  3  3
++         4  3  3  0  3  3  4  3  3  3  4  4  3  4  4  3  3
++         3  3  3  3  3  4  3  3  4  3  9  9  7  6  6  6  6
++         6  6  6  6  6  7  6  6  6  6  7  7  6  6  0  0  0
%c M  cc GPS ccc cccc cccc cccc cccc ccccc ccccc ccccc ccccc
%c cc cc ccc ccc cccc cccc cccc cccc ccccc ccccc ccccc ccccc
%f  1.2500000  1.025000000  0.00000000000  0.000000000000000
%f  0.0000000  0.000000000  0.00000000000  0.000000000000000
%i    0    0    0    0      0      0      0      0         0
%i    0    0    0    0      0      0      0      0         0
/* INFORMATION & ANALYSIS CENTER (IAC)            FINAL DATA
/* S/V CLOCKS ARE ALIGNED TO GNSS TIME                      
/* G:C1WC2W R:C1PC2P E:C1XC5X C:C2IC6I J:C1CC2S             
/* PCV:IGS14_2196 OL/AL:FES2004  NONE     YN ORB:CoN CLK:CoN
*  2022 06 24 23 30  0.00000000
PC06  -6481.748070  40678.044418  -8343.443326    258.387885
PC07  -4177.193367  27242.780047  31948.126768   -342.912305
PC08 -18907.179959  28226.560594 -25083.884569    377.093380
PC09  -2967.254455  41759.368937   -956.002016   -915.116953
PC10   3451.888454  29209.190335  30616.076310    123.848635
PC11   8132.287305 -22857.170876 -13702.828345    434.877994
PC12  14882.744387  -5404.807920 -22948.462751   -591.665246
PC13 -13062.179383  28922.842097 -27777.938752      5.455040
PC14   9850.169409 -12714.727547  22830.749459    515.084760
PC16  -8063.604044  39591.657018 -11415.789662    141.093514
PC19    810.904895  17145.068109 -21981.615772    -71.439449
PC20 -17161.376312   7423.752055 -20688.788240   -965.252309
PC21  26022.237133   7484.656489   6831.080565   -549.934217
PC22  19066.056485  17417.322837 -10617.519147   -963.517292
PC23  -9038.858866 -13550.464012 -22648.329632   -937.263181
PC24  23474.459878 -15053.841104    692.000455   -969.221700
PC25   8930.515902 -20695.707451 -16444.592372   -717.045754
PC26  23030.133586  -2577.295386  15516.170177    718.764356
PC27 -15819.850216  -4991.469747  22417.252455    744.154764
PC28 -10155.076243 -22585.212875  12859.064066     82.440628
PC29   -875.110329  27449.983073   4937.502907    572.901488
PC30 -12258.436741  15554.313244  19641.290599    500.319701
PC32 -26055.445542  -7334.805110  -6735.574474   -971.306867
PC33   -741.021089 -17130.888707  22018.185017    -12.049371
PC34  11863.043102 -16576.278646 -19083.420522   -373.383302
PC35  10436.791320  22959.950606 -11923.456864    335.997605
PC36  -9925.218332  20539.072567  16103.627322   -970.115776
PC37 -22610.629009   1063.862435 -16312.776615   -911.079739
PC38 -24340.593187  29535.996590 -17843.907473      5.523731
PC39  -9539.210565  37186.455647 -17221.314305     34.995706
PC40  -8989.882273  21098.035380  35381.402542    280.164384
PC41 -18686.455244 -17526.173359  11107.703460    -28.296289
PC42  18093.862321  -6716.231500  20209.483818   -957.754774
PC43   1492.680945 -27305.707279  -5628.090328   -916.240287
PC44  16131.260378   4592.194050 -22314.545500    703.095208
PC45   9273.915695  13256.631674  22745.102140    792.121152
PC46 -22895.587264  15964.719590    844.340717   -396.937188
PE01   1329.191550 -16711.285030 -24391.534191   -502.606294
PE02  -1134.355274  16709.195156  24407.986038    307.803467
PE03   6451.253576  25813.489030 -12982.860382   -572.273706
PE04 -19148.557168 -22021.494463  -4933.055804  -1057.280170
PE05 -10325.790328  14490.656073 -23647.846858   -169.047115
PE07  20844.925130   5078.919525  20409.052573   -681.544411
PE08  19297.452859  21852.550861   5175.573400   -552.374427
PE09 -20731.476299  -5025.435166 -20505.587629   -565.016892
PE10 -15231.516506  -5260.241702  24814.720946   -521.932914
PE11 -18803.587867   6165.179646  21991.336019   3236.410127
PE12  -9537.449474 -15338.227393  23445.092421    -28.360276
PE13  18598.636676  -5469.708696 -22374.525620    429.470904
PE14  18596.611909  23925.431431  -8433.080860  -1798.102220
PE15   9423.339161  15408.917819 -23452.029681    737.326232
PE18  -9895.278662 -22914.468054   -106.641706  -1290.487013
PE19  -4364.616268 -25143.460134  15008.298305  -5278.131576
PE21  20732.118720 -12878.196625 -16747.882131   -742.126408
PE24 -29532.463477    514.650977  -2088.867075   -689.067845
PE25 -20959.548675  12764.936329  16558.571188   -578.773271
PE26  16536.916953 -23452.881108  -7257.948561  -1301.375994
PE27  29548.990960  -1399.426898    983.421916   -329.794009
PE30  20064.070090  11379.255432  18540.173918   -619.597439
PE31 -20906.755558 -10784.578145 -17955.603223   -498.827600
PE33   5270.514425 -27098.394002  10687.550548   -455.313142
PE34  -5063.305618  27067.114343 -10882.024708   -523.823464
PE36 -16780.272839  22969.619276   8165.894323   -392.876620
PG01 -13771.774027  22475.128315   -980.252755    334.466210
PG02  17855.451889  -8628.926994 -17094.483745   -652.328781
PG03 -13073.311386  12688.617906 -19399.580651   -288.713335
PG04  -5350.656497  18356.025354 -18386.635154   -153.410763
PG05  24459.577617  -6037.232012   8473.886620    -86.745904
PG06  12459.971915   7627.367190 -22123.166072    357.447665
PG07  -1493.782885  22049.021859  14770.118150    321.163072
PG08 -10880.384213  11111.718698  21449.176145    -73.513071
PG09      0.000000      0.000000      0.000000 999999.999999
PG10 -17834.316114 -11624.524193  16214.738882   -467.722905
PG11  19016.985284  -5639.081913 -17656.177788    -13.074813
PG12  16926.345911 -10463.595616 -17806.954624   -236.293576
PG13  15516.750379   -464.923287  21419.028220    336.124682
PG14  16115.438340  13066.743282  16640.118632   -111.903611
PG15   9920.871230 -12660.019936  20680.900810    -50.599759
PG16 -26476.726671   -687.662936   3861.007012   -511.253359
PG17  13392.193715  22384.530484  -4410.220574    629.085428
PG18   2695.787761 -22075.852765  14421.990441    132.573653
PG19  16221.795776  16852.558011 -13051.404598    175.108279
PG20  26211.978028   -764.605421  -3337.133561    508.641667
PG21 -17096.033126  17430.843285  10174.034666    161.290584
PG22 -16928.667901 -14585.604290 -14072.624919    281.363826
PG23  -6779.578272 -14572.353169  21154.168476    -29.777955
PG24  14399.985201 -21681.820189   3715.087107    213.089379
PG25   1867.389280 -15363.310821 -21861.945267    341.409264
PG26 -25418.862268  -4589.114139  -6940.151541    214.392207
PG27 -17103.597347  -3132.918167  19974.515133    217.964215
PG28  22386.471080  10085.300273  10332.429214    331.609982
PG29  -2637.886793 -24109.080499 -10793.914521   -527.309862
PG30   6985.951620  16165.643526  19902.601159   -532.334883
PG31 -14838.837341  -5248.400294 -21569.614476   -183.140966
PG32 -16162.033080 -20074.828337  -6668.468238   -159.536547
PJ02 -30861.854166  23977.889624  20729.922675     -0.976359
PJ03 -27066.426947  28386.271269  20403.776191     -3.068189
PR01 -21145.450550  -8036.470265 -11768.232358     10.440932
PR02  -9749.590982   6041.989353 -22743.828669    522.233726
PR03   6468.480679  15905.335168 -18794.617822     59.031577
PR04  18749.920028  16694.105824  -4467.195760    148.066469
PR05  20681.612908   8400.035518  12338.985284     95.188628
PR07  -7141.518275 -16203.593854  18421.836574     36.904996
PR08 -18821.945379 -16663.896275   4459.640383    -65.876817
PR09  20287.470965 -13476.202834  -7693.542942     62.284374
PR11 -10923.987579  -6537.272619 -22087.728071     35.216213
PR12 -22970.098586   4911.345914  -9933.736570     19.019075
PR13 -21022.100511  12913.533075   6461.767061    -23.931087
PR14  -5975.885234  13633.284709  20723.831414     25.119016
PR15  11747.121377   6266.068699  21782.353477     95.133166
PR17  -2353.945880  25371.841118  -1582.353633    537.809653
PR18   5254.514175  18378.463063 -16856.324536    121.390715
PR19   9918.776097   3400.838052 -23260.974182   -193.941891
PR20   9837.443440 -17541.841373 -15715.582585    -73.275666
PR21   1781.736239 -25237.948208   3126.687377   -312.148470
PR24  -9528.296619  18264.017401  15062.955892    100.331723
EOF
